IRIDIUM 106             
1 41917U 17003A   26193.07261733 -.00000038  00000+0 -20619-4 0  9997
2 41917  86.3944  78.1512 0002134  94.9370 265.2069 14.34216912496770
IRIDIUM 103             
1 41918U 17003B   26193.05993340  .00000000  00000+0 -71520-5 0  9998
2 41918  86.3942  78.0561 0001876  82.9318 277.2091 14.34217298496791
IRIDIUM 109             
1 41919U 17003C   26193.13604258 -.00000044  00000+0 -22934-4 0  9998
2 41919  86.3943  78.0841 0002028  83.8040 276.3387 14.34217030496776
IRIDIUM 102             
1 41920U 17003D   26192.75549040 -.00000023  00000+0 -15287-4 0  9994
2 41920  86.3942  78.1661 0002097  84.0393 276.1042 14.34217007496802
IRIDIUM 105             
1 41921U 17003E   26193.06292679  .00000162  00000+0  50836-4 0  9994
2 41921  86.3943  46.4659 0002190  79.6876 280.4567 14.34217266498707
IRIDIUM 104             
1 41922U 17003F   26193.11701653  .00000147  00000+0  45497-4 0  9998
2 41922  86.3947  78.0584 0002060  78.4037 281.7390 14.34217608496843
IRIDIUM 114             
1 41923U 17003G   26193.12335853 -.00000007  00000+0 -96451-5 0  9999
2 41923  86.3943  78.0383 0001956  81.1027 279.0390 14.34217335496825
IRIDIUM 108             
1 41924U 17003H   26193.01211198  .00000162  00000+0  50961-4 0  9998
2 41924  86.3938  46.3758 0002249  85.2248 274.9204 14.34217631498661
IRIDIUM 112             
1 41925U 17003J   26191.64552802  .00000122  00000+0  36640-4 0  9990
2 41925  86.3941  78.4973 0002156  81.8094 278.3346 14.34219864496639
IRIDIUM 111             
1 41926U 17003K   26193.09798922  .00000147  00000+0  45333-4 0  9993
2 41926  86.3943  77.9613 0002170  84.9245 275.2198 14.34217819496825
IRIDIUM 113             
1 42803U 17039A   26192.86864658 -.00000032  00000+0 -18363-4 0  9999
2 42803  86.3988 311.8626 0002048  90.9447 269.1983 14.34217016474726
IRIDIUM 123             
1 42804U 17039B   26192.84035626 -.00000052  00000+0 -25521-4 0  9999
2 42804  86.3985 343.3312 0002009  96.0583 264.0841 14.34217018473482
IRIDIUM 120             
1 42805U 17039C   26192.86230671 -.00000030  00000+0 -17951-4 0  9993
2 42805  86.3976 311.6448 0002213  98.2569 261.8878 14.34216695474718
IRIDIUM 115             
1 42806U 17039D   26193.00835054  .00000183  00000+0  48350-4 0  9991
2 42806  86.4515 311.7155 0002168  98.3820 261.7626 14.43276520477845
IRIDIUM 118             
1 42807U 17039E   26192.87207084  .00000068  00000+0  17337-4 0  9995
2 42807  86.3986 343.3154 0002170  90.9518 269.1926 14.34217753473486
IRIDIUM 117             
1 42808U 17039F   26192.89109691  .00000152  00000+0  47302-4 0  9992
2 42808  86.3988 343.2648 0002171  94.8078 265.3366 14.34217260473514
IRIDIUM 126             
1 42809U 17039G   26192.84670049  .00000114  00000+0  33608-4 0  9990
2 42809  86.3988 343.3351 0002055  90.2941 269.8490 14.34217885473483
IRIDIUM 124             
1 42810U 17039H   26193.21946380  .00000185  00000+0  49137-4 0  9990
2 42810  86.4484 279.8929 0002295  95.8099 264.3363 14.43285178478723
IRIDIUM 128             
1 42811U 17039J   26192.97697635  .00000055  00000+0  12577-4 0  9993
2 42811  86.3962  14.7825 0002251  94.6532 265.4921 14.34216682473536
IRIDIUM 121             
1 42812U 17039K   26192.86572836 -.00000040  00000+0 -21270-4 0  9993
2 42812  86.3985 343.3554 0002135  93.4724 266.6716 14.34217190473364
IRIDIUM 133             
1 42955U 17061A   26192.86915127  .00000066  00000+0  16428-4 0  9995
2 42955  86.3966  14.9461 0002193  91.0392 269.1055 14.34216946458318
IRIDIUM 100             
1 42956U 17061B   26192.93257889  .00000039  00000+0  67284-5 0  9995
2 42956  86.3963  14.8377 0002225  90.1412 270.0038 14.34216988458329
IRIDIUM 122             
1 42957U 17061C   26192.97062959  .00000132  00000+0  40143-4 0  9990
2 42957  86.3965  14.8221 0002116  91.5707 268.5731 14.34217210458333
IRIDIUM 129             
1 42958U 17061D   26192.57738984  .00000048  00000+0  10078-4 0  9995
2 42958  86.3964  15.0539 0002195  83.4942 276.6503 14.34216885458295
IRIDIUM 119             
1 42959U 17061E   26192.96429058  .00000034  00000+0  49579-5 0  9992
2 42959  86.3961  14.8876 0002103  89.6562 270.4875 14.34216490458363
IRIDIUM 107             
1 42960U 17061F   26192.98331654 -.00000007  00000+0 -96807-5 0  9998
2 42960  86.3959  14.9014 0001951  94.7054 265.4364 14.34216852458370
IRIDIUM 132             
1 42961U 17061G   26192.98965978  .00000043  00000+0  84049-5 0  9994
2 42961  86.3965  14.8780 0002189  90.2315 269.9131 14.34216464458372
IRIDIUM 136             
1 42962U 17061H   26193.02137499  .00000044  00000+0  88044-5 0  9990
2 42962  86.3965  14.8713 0002245  90.4407 269.7046 14.34217023458393
IRIDIUM 139             
1 42963U 17061J   26193.02771786  .00000003  00000+0 -60992-5 0  9992
2 42963  86.3963  14.9311 0002124  92.1943 267.9496 14.34216842458406
IRIDIUM 125             
1 42964U 17061K   26192.59642183  .00000049  00000+0  10301-4 0  9999
2 42964  86.3967  15.1731 0001662  88.7632 271.3754 14.34217300458352
