OBJECT_NAME,OBJECT_ID,EPOCH,MEAN_MOTION,ECCENTRICITY,INCLINATION,RA_OF_ASC_NODE,ARG_OF_PERICENTER,MEAN_ANOMALY,EPHEMERIS_TYPE,CLASSIFICATION_TYPE,NORAD_CAT_ID,ELEMENT_SET_NO,REV_AT_EPOCH,BSTAR,MEAN_MOTION_DOT,MEAN_MOTION_DDOT
IRIDIUM 106,2017-003A,2026-07-12T01:44:34.137312,14.34216912,.0002134,86.3944,78.1512,94.9370,265.2069,0,U,41917,999,49677,-.20619E-4,-.38E-6,0
IRIDIUM 103,2017-003B,2026-07-12T01:26:18.245760,14.34217298,.0001876,86.3942,78.0561,82.9318,277.2091,0,U,41918,999,49679,-.7152E-5,0,0
IRIDIUM 109,2017-003C,2026-07-12T03:15:54.078912,14.34217030,.0002028,86.3943,78.0841,83.8040,276.3387,0,U,41919,999,49677,-.22934E-4,-.44E-6,0
IRIDIUM 102,2017-003D,2026-07-11T18:07:54.370560,14.34217007,.00020973,86.3942,78.1661,84.0393,276.1042,0,U,41920,999,49680,-.15286838E-4,-.23E-6,0
IRIDIUM 105,2017-003E,2026-07-12T01:30:36.874656,14.34217266,.000219,86.3943,46.4659,79.6876,280.4567,0,U,41921,999,49870,.50836E-4,.162E-5,0
IRIDIUM 104,2017-003F,2026-07-12T02:48:30.228192,14.34217608,.000206,86.3947,78.0584,78.4037,281.7390,0,U,41922,999,49684,.45497E-4,.147E-5,0
IRIDIUM 114,2017-003G,2026-07-12T02:57:38.176992,14.34217335,.0001956,86.3943,78.0383,81.1027,279.0390,0,U,41923,999,49682,-.96451E-5,-.7E-7,0
IRIDIUM 108,2017-003H,2026-07-12T00:17:26.475072,14.34217631,.0002249,86.3938,46.3758,85.2248,274.9204,0,U,41924,999,49866,.50961E-4,.162E-5,0
IRIDIUM 112,2017-003J,2026-07-10T15:29:33.620928,14.34219864,.00021565,86.3941,78.4973,81.8094,278.3346,0,U,41925,999,49663,.36640037E-4,.122E-5,0
IRIDIUM 111,2017-003K,2026-07-12T02:21:06.268608,14.34217819,.000217,86.3943,77.9613,84.9245,275.2198,0,U,41926,999,49682,.45333E-4,.147E-5,0
IRIDIUM 113,2017-039A,2026-07-11T20:50:51.064512,14.34217016,.00020488,86.3988,311.8626,90.9447,269.1983,0,U,42803,999,47472,-.18362846E-4,-.32E-6,0
IRIDIUM 123,2017-039B,2026-07-11T20:10:06.780864,14.34217018,.00020093,86.3985,343.3312,96.0583,264.0841,0,U,42804,999,47348,-.2552139E-4,-.52E-6,0
IRIDIUM 120,2017-039C,2026-07-11T20:41:43.299744,14.34216695,.00022135,86.3976,311.6448,98.2569,261.8878,0,U,42805,999,47471,-.17951023E-4,-.3E-6,0
IRIDIUM 115,2017-039D,2026-07-12T00:12:01.486656,14.43276520,.0002168,86.4515,311.7155,98.3820,261.7626,0,U,42806,999,47784,.4835E-4,.183E-5,0
IRIDIUM 118,2017-039E,2026-07-11T20:55:46.920576,14.34217753,.00021707,86.3986,343.3154,90.9518,269.1926,0,U,42807,999,47348,.17336949E-4,.68E-6,0
IRIDIUM 117,2017-039F,2026-07-11T21:23:10.773024,14.34217260,.0002171,86.3988,343.2648,94.8078,265.3366,0,U,42808,999,47351,.47302E-4,.152E-5,0
IRIDIUM 126,2017-039G,2026-07-11T20:19:14.922336,14.34217885,.00020551,86.3988,343.3351,90.2941,269.8490,0,U,42809,999,47348,.33608335E-4,.114E-5,0
IRIDIUM 124,2017-039H,2026-07-12T05:16:01.672320,14.43285178,.0002295,86.4484,279.8929,95.8099,264.3363,0,U,42810,999,47872,.49137E-4,.185E-5,0
IRIDIUM 128,2017-039J,2026-07-11T23:26:50.756640,14.34216682,.0002251,86.3962,14.7825,94.6532,265.4921,0,U,42811,999,47353,.12577E-4,.55E-6,0
IRIDIUM 121,2017-039K,2026-07-11T20:46:38.930304,14.34217190,.00021358,86.3985,343.3554,93.4724,266.6716,0,U,42812,999,47336,-.21270229E-4,-.4E-6,0
IRIDIUM 133,2017-061A,2026-07-11T20:51:34.669728,14.34216946,.00021932,86.3966,14.9461,91.0392,269.1055,0,U,42955,999,45831,.1642837E-4,.66E-6,0
IRIDIUM 100,2017-061B,2026-07-11T22:22:54.816096,14.34216988,.0002225,86.3963,14.8377,90.1412,270.0038,0,U,42956,999,45832,.67284E-5,.39E-6,0
IRIDIUM 122,2017-061C,2026-07-11T23:17:42.396576,14.34217210,.0002116,86.3965,14.8221,91.5707,268.5731,0,U,42957,999,45833,.40143E-4,.132E-5,0
IRIDIUM 129,2017-061D,2026-07-11T13:51:26.482176,14.34216885,.00021952,86.3964,15.0539,83.4942,276.6503,0,U,42958,999,45829,.10078189E-4,.48E-6,0
IRIDIUM 119,2017-061E,2026-07-11T23:08:34.706112,14.34216490,.0002103,86.3961,14.8876,89.6562,270.4875,0,U,42959,999,45836,.49579E-5,.34E-6,0
IRIDIUM 107,2017-061F,2026-07-11T23:35:58.549056,14.34216852,.0001951,86.3959,14.9014,94.7054,265.4364,0,U,42960,999,45837,-.96807E-5,-.7E-7,0
IRIDIUM 132,2017-061G,2026-07-11T23:45:06.604992,14.34216464,.0002189,86.3965,14.8780,90.2315,269.9131,0,U,42961,999,45837,.84049E-5,.43E-6,0
IRIDIUM 136,2017-061H,2026-07-12T00:30:46.799136,14.34217023,.0002245,86.3965,14.8713,90.4407,269.7046,0,U,42962,999,45839,.88044E-5,.44E-6,0
IRIDIUM 139,2017-061J,2026-07-12T00:39:54.823104,14.34216842,.0002124,86.3963,14.9311,92.1943,267.9496,0,U,42963,999,45840,-.60992E-5,.3E-7,0
IRIDIUM 125,2017-061K,2026-07-11T14:18:50.846112,14.34217300,.00016629,86.3967,15.1731,88.7632,271.3754,0,U,42964,999,45835,.10301159E-4,.49E-6,0
